NORAD_CAT_ID,OBJECT_NAME,OBJECT_TYPE,EPOCH,MEAN_MOTION,ECCENTRICITY,INCLINATION,RA_OF_ASC_NODE,ARG_OF_PERICENTER,MEAN_ANOMALY,BSTAR,MEAN_MOTION_DOT,MEAN_MOTION_DDOT,TLE_LINE0,TLE_LINE1,TLE_LINE2,SEMIMAJOR_AXIS,PERIOD,APOGEE,PERIGEE,DECAYED
52650.0,STARLINK-3891,PAYLOAD,2023-11-11 09:33:33,15.08835179,0.000111,53.2161,101.8407,88.0783,272.0337,0.00029101,4.346e-05,0.0,0 STARLINK-3891,1 52650U 22052BE  23315.39830242  .00004346  00000-0  29101-3 0  9997,2 52650  53.2161 101.8407 0001110  88.0783 272.0337 15.08835179 83435,6917.895,95.438,540.528,538.992,0.0
52650.0,STARLINK-3891,PAYLOAD,2023-11-11 14:19:42,15.08846893,0.0001045,53.2163,100.9483,82.162,277.9491,0.00019168,2.765e-05,0.0,0 STARLINK-3891,1 52650U 22052BE  23315.59701528  .00002765  00000-0  19168-3 0  9998,2 52650  53.2163 100.9483 0001045  82.1620 277.9491 15.08846893 83095,6917.859,95.437,540.447,539.001,0.0
52650.0,STARLINK-3891,PAYLOAD,2023-11-11 17:30:27,15.08860256,0.0001091,53.2168,100.3532,85.6887,274.423,0.00022617,3.315e-05,0.0,0 STARLINK-3891,1 52650U 22052BE  23315.72948563  .00003315  00000-0  22617-3 0  9990,2 52650  53.2168 100.3532 0001091  85.6887 274.4230 15.08860256 83488,6917.818,95.436,540.438,538.929,0.0
52650.0,STARLINK-3891,PAYLOAD,2023-11-12 03:02:47,15.08845044,0.0001158,53.2164,98.5697,88.4153,271.6972,9.2493e-05,1.185e-05,0.0,0 STARLINK-3891,1 52650U 22052BE  23316.12693527  .00001185  00000-0  92493-4 0  9995,2 52650  53.2164  98.5697 0001158  88.4153 271.6972 15.08845044 83542,6917.865,95.437,540.531,538.929,0.0
52650.0,STARLINK-3891,PAYLOAD,2023-11-12 14:10:30,15.08826136,0.000114,53.2158,96.4892,92.2773,267.835,-5.2025e-05,-1.115e-05,0.0,0 STARLINK-3891,1 52650U 22052BE  23316.59063331 -.00001115  00000-0 -52025-4 0  9992,2 52650  53.2158  96.4892 0001140  92.2773 267.8350 15.08826136 83246,6917.923,95.438,540.576,538.999,0.0
52650.0,STARLINK-3891,PAYLOAD,2023-11-12 15:45:53,15.08829065,0.0001154,53.2168,96.1896,94.4993,265.6131,-7.0485e-05,-1.409e-05,0.0,0 STARLINK-3891,1 52650U 22052BE  23316.65687209 -.00001409  00000-0 -70485-4 0  9991,2 52650  53.2168  96.1896 0001154  94.4993 265.6131 15.08829065 83620,6917.914,95.438,540.577,538.98,0.0
52650.0,STARLINK-3891,PAYLOAD,2023-11-13 09:15:07,15.08850254,0.0001286,53.2192,92.9158,110.6687,249.4443,-9.4575e-05,-1.793e-05,0.0,0 STARLINK-3891,1 52650U 22052BE  23317.38550131 -.00001793  00000-0 -94575-4 0  9997,2 52650  53.2192  92.9158 0001286 110.6687 249.4443 15.08850254 83731,6917.849,95.437,540.604,538.824,0.0
52650.0,STARLINK-3891,PAYLOAD,2023-11-13 12:25:53,15.08851643,0.00012,53.2177,92.3248,99.4855,260.6272,1.861e-05,8e-08,0.0,0 STARLINK-3891,1 52650U 22052BE  23317.51797730  .00000008  00000-0  18610-4 0  9992,2 52650  53.2177  92.3248 0001200  99.4855 260.6272 15.08851643 83384,6917.845,95.437,540.54,538.88,0.0
52650.0,STARLINK-3891,PAYLOAD,2023-11-14 12:16:41,15.08835485,0.0001191,53.2171,87.8645,101.5112,258.6013,0.00028309,4.22e-05,0.0,0 STARLINK-3891,1 52650U 22052BE  23318.51158826  .00004220  00000-0  28309-3 0  9995,2 52650  53.2171  87.8645 0001191 101.5112 258.6013 15.08835485 83902,6917.894,95.438,540.583,538.935,0.0
52650.0,STARLINK-3891,PAYLOAD,2023-11-14 15:27:27,15.0883564,9.85e-05,53.2161,87.2697,84.9956,275.1149,0.00026853,3.988e-05,0.0,0 STARLINK-3891,1 52650U 22052BE  23318.64406906  .00003988  00000-0  26853-3 0  9996,2 52650  53.2161  87.2697 0000985  84.9956 275.1149 15.08835640 83550,6917.894,95.438,540.44,539.077,0.0
52650.0,STARLINK-3891,PAYLOAD,2023-11-15 15:18:14,15.08844006,0.0001038,53.2166,82.8097,80.5624,279.5486,8.5389e-05,1.072e-05,0.0,0 STARLINK-3891,1 52650U 22052BE  23319.63766431  .00001072  00000-0  85389-4 0  9990,2 52650  53.2166  82.8097 0001038  80.5624 279.5486 15.08844006 83709,6917.868,95.437,540.451,539.015,0.0
52650.0,STARLINK-3891,PAYLOAD,2023-11-16 00:50:31,15.08858925,0.0001155,53.2167,81.0241,85.8097,274.3027,0.00026349,3.91e-05,0.0,0 STARLINK-3891,1 52650U 22052BE  23320.03508685  .00003910  00000-0  26349-3 0  9994,2 52650  53.2167  81.0241 0001155  85.8097 274.3027 15.08858925 84131,6917.823,95.436,540.487,538.889,0.0
52650.0,STARLINK-3891,PAYLOAD,2023-11-17 11:49:02,15.0883818,0.0001341,53.2173,74.4838,99.5112,260.6031,2.5038e-05,1.11e-06,0.0,0 STARLINK-3891,1 52650U 22052BE  23321.49238753  .00000111  00000-0  25038-4 0  9996,2 52650  53.2173  74.4838 0001341  99.5112 260.6031 15.08838180 84351,6917.886,95.438,540.679,538.823,0.0
52650.0,STARLINK-3891,PAYLOAD,2023-11-17 14:59:48,15.08840355,0.0001187,53.218,73.8898,99.5014,260.6113,4.0838e-05,3.62e-06,0.0,0 STARLINK-3891,1 52650U 22052BE  23321.62486569  .00000362  00000-0  40838-4 0  9994,2 52650  53.2180  73.8898 0001187  99.5014 260.6113 15.08840355 84007,6917.879,95.438,540.565,538.923,0.0
52650.0,STARLINK-3891,PAYLOAD,2023-11-18 11:39:49,15.08834247,0.000122,53.2181,70.0249,105.4103,254.7024,0.00011273,1.506e-05,0.0,0 STARLINK-3891,1 52650U 22052BE  23322.48598873  .00001506  00000-0  11273-3 0  9992,2 52650  53.2181  70.0249 0001220 105.4103 254.7024 15.08834247 84133,6917.898,95.438,540.607,538.919,0.0
52650.0,STARLINK-3891,PAYLOAD,2023-11-18 16:25:58,15.08838623,0.0001367,53.2191,69.1343,104.7022,255.4122,0.00012126,1.642e-05,0.0,0 STARLINK-3891,1 52650U 22052BE  23322.68470714  .00001642  00000-0  12126-3 0  9996,2 52650  53.2191  69.1343 0001367 104.7022 255.4122 15.08838623 84535,6917.885,95.438,540.695,538.804,0.0
52650.0,STARLINK-3891,PAYLOAD,2023-11-19 14:41:22,15.08842686,0.0001131,53.2172,64.9674,82.4573,277.6548,0.00011231,1.5e-05,0.0,0 STARLINK-3891,1 52650U 22052BE  23323.61206685  .00001500  00000-0  11231-3 0  9993,2 52650  53.2172  64.9674 0001131  82.4573 277.6548 15.08842686 84303,6917.872,95.437,540.52,538.955,0.0
52650.0,STARLINK-3891,PAYLOAD,2023-11-20 00:13:41,15.08835674,0.0001178,53.2174,63.1837,83.2947,276.8179,0.00015763,2.221e-05,0.0,0 STARLINK-3891,1 52650U 22052BE  23324.00951052  .00002221  00000-0  15763-3 0  9997,2 52650  53.2174  63.1837 0001178  83.2947 276.8179 15.08835674 84739,6917.894,95.438,540.574,538.944,0.0
52650.0,STARLINK-3891,PAYLOAD,2023-11-20 12:56:46,15.08821606,0.0001199,53.2169,60.8063,91.8423,268.2707,0.00039053,5.93e-05,0.0,0 STARLINK-3891,1 52650U 22052BE  23324.53943241  .00005930  00000-0  39053-3 0  9994,2 52650  53.2169  60.8063 0001199  91.8423 268.2707 15.08821606 84445,6917.937,95.439,540.631,538.972,0.0
52650.0,STARLINK-3891,PAYLOAD,2023-11-21 11:12:10,15.08843761,0.0001281,53.2179,56.6424,86.2332,273.8807,8.0562e-05,9.95e-06,0.0,0 STARLINK-3891,1 52650U 22052BE  23325.46678673  .00000995  00000-0  80562-4 0  9999,2 52650  53.2179  56.6424 0001281  86.2332 273.8807 15.08843761 84954,6917.869,95.437,540.62,538.848,0.0
52650.0,STARLINK-3891,PAYLOAD,2023-11-21 12:47:33,15.08848903,0.0001237,53.2181,56.345,87.2409,272.8725,7.496e-05,9.06e-06,0.0,0 STARLINK-3891,1 52650U 22052BE  23325.53302392  .00000906  00000-0  74960-4 0  9996,2 52650  53.2181  56.3450 0001237  87.2409 272.8725 15.08848903 84591,6917.853,95.437,540.574,538.862,0.0
52650.0,STARLINK-3891,PAYLOAD,2023-11-22 11:02:57,15.08841348,0.0001294,53.2173,52.1821,92.1491,267.9649,0.00035744,5.406e-05,0.0,0 STARLINK-3891,1 52650U 22052BE  23326.46038773  .00005406  00000-0  35744-3 0  9994,2 52650  53.2173  52.1821 0001294  92.1491 267.9649 15.08841348 84739,6917.876,95.437,540.636,538.846,0.0
52650.0,STARLINK-3891,PAYLOAD,2023-11-23 10:53:44,15.08837469,0.0001469,53.2184,47.7241,87.3772,272.7388,-1.574e-05,-5.38e-06,0.0,0 STARLINK-3891,1 52650U 22052BE  23327.45399099 -.00000538  00000-0 -15740-4 0  9993,2 52650  53.2184  47.7241 0001469  87.3772 272.7388 15.08837469 85250,6917.888,95.438,540.769,538.737,0.0
52650.0,STARLINK-3891,PAYLOAD,2023-11-23 12:29:07,15.08838451,0.0001592,53.2189,47.4252,106.7451,253.3716,-4.2314e-06,-3.55e-06,0.0,0 STARLINK-3891,1 52650U 22052BE  23327.52022893 -.00000355  00000-0 -42314-5 0  9991,2 52650  53.2189  47.4252 0001592 106.7451 253.3716 15.08838451 84892,6917.885,95.438,540.851,538.649,0.0
52650.0,STARLINK-3891,PAYLOAD,2023-11-24 10:44:32,15.08833635,0.0001737,53.218,43.2573,112.1159,248.0018,-0.00010484,-1.956e-05,0.0,0 STARLINK-3891,1 52650U 22052BE  23328.44759928 -.00001956  00000-0 -10484-3 0  9998,2 52650  53.2180  43.2573 0001737 112.1159 248.0018 15.08833635 85403,6917.9,95.438,540.966,538.563,0.0
52650.0,STARLINK-3891,PAYLOAD,2023-11-24 12:19:55,15.08833315,0.0001608,53.2186,42.9633,101.9694,258.1478,-6.7599e-05,-1.363e-05,0.0,0 STARLINK-3891,1 52650U 22052BE  23328.51383977 -.00001363  00000-0 -67599-4 0  9995,2 52650  53.2186  42.9633 0001608 101.9694 258.1478 15.08833315 85046,6917.901,95.438,540.878,538.653,0.0
52650.0,STARLINK-3891,PAYLOAD,2023-11-25 13:46:04,15.08853186,0.0001771,53.2193,38.2087,110.4428,249.6755,0.00023561,3.465e-05,0.0,0 STARLINK-3891,1 52650U 22052BE  23329.57366401  .00003465  00000-0  23561-3 0  9998,2 52650  53.2193  38.2087 0001771 110.4428 249.6755 15.08853186 85205,6917.84,95.437,540.93,538.48,0.0
52650.0,STARLINK-3891,PAYLOAD,2023-11-26 12:01:28,15.08851499,0.0001736,53.2192,34.0442,79.8387,280.2801,0.00022758,3.337e-05,0.0,0 STARLINK-3891,1 52650U 22052BE  23330.50102422  .00003337  00000-0  22758-3 0  9999,2 52650  53.2192  34.0442 0001736  79.8387 280.2801 15.08851499 85710,6917.845,95.437,540.911,538.509,0.0
52650.0,STARLINK-3891,PAYLOAD,2023-11-27 11:52:17,15.08847867,0.0001742,53.2203,29.5856,76.2771,283.8415,1.1453e-05,-1.06e-06,0.0,0 STARLINK-3891,1 52650U 22052BE  23331.49465129 -.00000106  00000-0  11453-4 0  9997,2 52650  53.2203  29.5856 0001742  76.2771 283.8415 15.08847867 85866,6917.856,95.437,540.926,538.516,0.0
52650.0,STARLINK-3891,PAYLOAD,2023-11-27 13:27:40,15.08850872,0.0001613,53.2199,29.2843,79.2692,280.8482,3.4755e-05,2.65e-06,0.0,0 STARLINK-3891,1 52650U 22052BE  23331.56088791  .00000265  00000-0  34755-4 0  9996,2 52650  53.2199  29.2843 0001613  79.2692 280.8482 15.08850872 85507,6917.847,95.437,540.828,538.596,0.0
